{"type": "FeatureCollection", "features": [{"type": "Feature", "properties": {"norad_id": 25590, "name": "COSMOS 2361", "group": "musson", "lat": 73.77836860378059, "lon": 10.76341472051566, "alt_km": 1002.2961925298086, "timestamp": "2025-12-10T18:57:00.335246+00:00", "meta": {"OBJECT_NAME": "COSMOS 2361", "OBJECT_ID": "1998-076A", "EPOCH": "2025-12-10T12:08:02.703840", "MEAN_MOTION": 13.73217127, "ECCENTRICITY": 0.0030057, "INCLINATION": 82.9338, "RA_OF_ASC_NODE": 345.7389, "ARG_OF_PERICENTER": 272.0915, "MEAN_ANOMALY": 200.0139, "EPHEMERIS_TYPE": 0, "CLASSIFICATION_TYPE": "U", "NORAD_CAT_ID": 25590, "ELEMENT_SET_NO": 999, "REV_AT_EPOCH": 35080, "BSTAR": 8.502e-05, "MEAN_MOTION_DOT": 9.4e-07, "MEAN_MOTION_DDOT": 0}, "tle": {"line1": "1 25590U 98076A   25344.50558685  .00000094  00000+0  85020-4 0  9992", "line2": "2 25590  82.9338 345.7389 0030057 272.0915 200.0139 13.73217127350801"}}, "geometry": {"type": "Point", "coordinates": [10.76341472051566, 73.77836860378059]}}, {"type": "Feature", "properties": {"norad_id": 26818, "name": "COSMOS 2378", "group": "musson", "lat": 38.469502805044144, "lon": 175.51005630036067, "alt_km": 973.3680914095903, "timestamp": "2025-12-10T18:57:00.335267+00:00", "meta": {"OBJECT_NAME": "COSMOS 2378", "OBJECT_ID": "2001-023A", "EPOCH": "2025-12-10T11:48:43.250400", "MEAN_MOTION": 13.74141732, "ECCENTRICITY": 0.003228, "INCLINATION": 82.9273, "RA_OF_ASC_NODE": 1.3916, "ARG_OF_PERICENTER": 211.2505, "MEAN_ANOMALY": 259.7094, "EPHEMERIS_TYPE": 0, "CLASSIFICATION_TYPE": "U", "NORAD_CAT_ID": 26818, "ELEMENT_SET_NO": 999, "REV_AT_EPOCH": 22892, "BSTAR": 5.9731e-05, "MEAN_MOTION_DOT": 7.1e-07, "MEAN_MOTION_DDOT": 0}, "tle": {"line1": "1 26818U 01023A   25344.49216725  .00000071  00000+0  59731-4 0  9991", "line2": "2 26818  82.9273   1.3916 0032280 211.2505 259.7094 13.74141732228921"}}, "geometry": {"type": "Point", "coordinates": [175.51005630036067, 38.469502805044144]}}, {"type": "Feature", "properties": {"norad_id": 27436, "name": "COSMOS 2389", "group": "musson", "lat": -19.241624809612386, "lon": -54.04712149862861, "alt_km": 983.1201744813598, "timestamp": "2025-12-10T18:57:00.335281+00:00", "meta": {"OBJECT_NAME": "COSMOS 2389", "OBJECT_ID": "2002-026A", "EPOCH": "2025-12-10T10:54:24.321888", "MEAN_MOTION": 13.75154267, "ECCENTRICITY": 0.0047669, "INCLINATION": 82.95, "RA_OF_ASC_NODE": 308.6765, "ARG_OF_PERICENTER": 66.9463, "MEAN_ANOMALY": 56.1274, "EPHEMERIS_TYPE": 0, "CLASSIFICATION_TYPE": "U", "NORAD_CAT_ID": 27436, "ELEMENT_SET_NO": 999, "REV_AT_EPOCH": 18117, "BSTAR": 9.193e-05, "MEAN_MOTION_DOT": 1.04e-06, "MEAN_MOTION_DDOT": 0}, "tle": {"line1": "1 27436U 02026A   25344.45444817  .00000104  00000+0  91930-4 0  9997", "line2": "2 27436  82.9500 308.6765 0047669  66.9463  56.1274 13.75154267181173"}}, "geometry": {"type": "Point", "coordinates": [-54.04712149862861, -19.241624809612386]}}, {"type": "Feature", "properties": {"norad_id": 27818, "name": "COSMOS 2398", "group": "musson", "lat": -46.38242422084156, "lon": -93.32825845893437, "alt_km": 1020.7592846142643, "timestamp": "2025-12-10T18:57:00.335292+00:00", "meta": {"OBJECT_NAME": "COSMOS 2398", "OBJECT_ID": "2003-023A", "EPOCH": "2025-12-10T09:17:20.031360", "MEAN_MOTION": 13.72385363, "ECCENTRICITY": 0.0032501, "INCLINATION": 82.9484, "RA_OF_ASC_NODE": 274.4319, "ARG_OF_PERICENTER": 118.0873, "MEAN_ANOMALY": 7.5444, "EPHEMERIS_TYPE": 0, "CLASSIFICATION_TYPE": "U", "NORAD_CAT_ID": 27818, "ELEMENT_SET_NO": 999, "REV_AT_EPOCH": 12784, "BSTAR": 9.5411e-05, "MEAN_MOTION_DOT": 1.03e-06, "MEAN_MOTION_DDOT": 0}, "tle": {"line1": "1 27818U 03023A   25344.38703740  .00000103  00000+0  95411-4 0  9991", "line2": "2 27818  82.9484 274.4319 0032501 118.0873   7.5444 13.72385363127849"}}, "geometry": {"type": "Point", "coordinates": [-93.32825845893437, -46.38242422084156]}}, {"type": "Feature", "properties": {"norad_id": 28380, "name": "COSMOS 2407", "group": "musson", "lat": 57.31298641581478, "lon": 23.234933839787065, "alt_km": 957.3561940898508, "timestamp": "2025-12-10T18:57:00.335303+00:00", "meta": {"OBJECT_NAME": "COSMOS 2407", "OBJECT_ID": "2004-028A", "EPOCH": "2025-12-10T10:28:27.638400", "MEAN_MOTION": 13.76313301, "ECCENTRICITY": 0.0040405, "INCLINATION": 82.9609, "RA_OF_ASC_NODE": 214.598, "ARG_OF_PERICENTER": 61.0993, "MEAN_ANOMALY": 111.6335, "EPHEMERIS_TYPE": 0, "CLASSIFICATION_TYPE": "U", "NORAD_CAT_ID": 28380, "ELEMENT_SET_NO": 999, "REV_AT_EPOCH": 7391, "BSTAR": 7.2892e-05, "MEAN_MOTION_DOT": 8.7e-07, "MEAN_MOTION_DDOT": 0}, "tle": {"line1": "1 28380U 04028A   25344.43643100  .00000087  00000+0  72892-4 0  9990", "line2": "2 28380  82.9609 214.5980 0040405  61.0993 111.6335 13.76313301 73915"}}, "geometry": {"type": "Point", "coordinates": [23.234933839787065, 57.31298641581478]}}, {"type": "Feature", "properties": {"norad_id": 28521, "name": "COSMOS 2414", "group": "musson", "lat": -55.527070964986656, "lon": 175.75018592363153, "alt_km": 970.817535382861, "timestamp": "2025-12-10T18:57:00.335314+00:00", "meta": {"OBJECT_NAME": "COSMOS 2414", "OBJECT_ID": "2005-002A", "EPOCH": "2025-12-10T12:18:05.361120", "MEAN_MOTION": 13.87902523, "ECCENTRICITY": 0.0040767, "INCLINATION": 82.9493, "RA_OF_ASC_NODE": 186.3442, "ARG_OF_PERICENTER": 145.9271, "MEAN_ANOMALY": 214.4522, "EPHEMERIS_TYPE": 0, "CLASSIFICATION_TYPE": "U", "NORAD_CAT_ID": 28521, "ELEMENT_SET_NO": 999, "REV_AT_EPOCH": 5764, "BSTAR": 7.1926e-05, "MEAN_MOTION_DOT": 1.02e-06, "MEAN_MOTION_DDOT": 0}, "tle": {"line1": "1 28521U 05002A   25344.51256205  .00000102  00000+0  71926-4 0  9990", "line2": "2 28521  82.9493 186.3442 0040767 145.9271 214.4522 13.87902523 57648"}}, "geometry": {"type": "Point", "coordinates": [175.75018592363153, -55.527070964986656]}}, {"type": "Feature", "properties": {"norad_id": 32052, "name": "COSMOS 2429", "group": "musson", "lat": 12.263169984631235, "lon": 163.21195521182904, "alt_km": 998.5971024321589, "timestamp": "2025-12-10T18:57:00.335325+00:00", "meta": {"OBJECT_NAME": "COSMOS 2429", "OBJECT_ID": "2007-038A", "EPOCH": "2025-12-10T11:09:22.780800", "MEAN_MOTION": 13.75149052, "ECCENTRICITY": 0.0039351, "INCLINATION": 82.9802, "RA_OF_ASC_NODE": 344.9859, "ARG_OF_PERICENTER": 44.061, "MEAN_ANOMALY": 316.3671, "EPHEMERIS_TYPE": 0, "CLASSIFICATION_TYPE": "U", "NORAD_CAT_ID": 32052, "ELEMENT_SET_NO": 999, "REV_AT_EPOCH": 91571, "BSTAR": 7.5522e-05, "MEAN_MOTION_DOT": 8.8e-07, "MEAN_MOTION_DDOT": 0}, "tle": {"line1": "1 32052U 07038A   25344.46484700  .00000088  00000+0  75522-4 0  9991", "line2": "2 32052  82.9802 344.9859 0039351  44.0610 316.3671 13.75149052915718"}}, "geometry": {"type": "Point", "coordinates": [163.21195521182904, 12.263169984631235]}}, {"type": "Feature", "properties": {"norad_id": 35635, "name": "COSMOS 2454", "group": "musson", "lat": -20.4502033107335, "lon": 167.48047813964155, "alt_km": 936.4673728142998, "timestamp": "2025-12-10T18:57:00.335335+00:00", "meta": {"OBJECT_NAME": "COSMOS 2454", "OBJECT_ID": "2009-039A", "EPOCH": "2025-12-10T12:24:35.910720", "MEAN_MOTION": 13.89928109, "ECCENTRICITY": 0.002048, "INCLINATION": 82.9553, "RA_OF_ASC_NODE": 170.3299, "ARG_OF_PERICENTER": 79.6873, "MEAN_ANOMALY": 337.2799, "EPHEMERIS_TYPE": 0, "CLASSIFICATION_TYPE": "U", "NORAD_CAT_ID": 35635, "ELEMENT_SET_NO": 999, "REV_AT_EPOCH": 83119, "BSTAR": 6.1681e-05, "MEAN_MOTION_DOT": 9.2e-07, "MEAN_MOTION_DDOT": 0}, "tle": {"line1": "1 35635U 09039A   25344.51708230  .00000092  00000+0  61681-4 0  9993", "line2": "2 35635  82.9553 170.3299 0020480  79.6873 337.2799 13.89928109831193"}}, "geometry": {"type": "Point", "coordinates": [167.48047813964155, -20.4502033107335]}}, {"type": "Feature", "properties": {"norad_id": 36519, "name": "COSMOS 2463", "group": "musson", "lat": 31.72976245394779, "lon": -156.23515981779886, "alt_km": 1013.0053053333259, "timestamp": "2025-12-10T18:57:00.335345+00:00", "meta": {"OBJECT_NAME": "COSMOS 2463", "OBJECT_ID": "2010-017A", "EPOCH": "2025-12-10T11:46:29.650080", "MEAN_MOTION": 13.71648963, "ECCENTRICITY": 0.0034836, "INCLINATION": 82.9615, "RA_OF_ASC_NODE": 28.3655, "ARG_OF_PERICENTER": 294.5247, "MEAN_ANOMALY": 178.1615, "EPHEMERIS_TYPE": 0, "CLASSIFICATION_TYPE": "U", "NORAD_CAT_ID": 36519, "ELEMENT_SET_NO": 999, "REV_AT_EPOCH": 78206, "BSTAR": 6.8221e-05, "MEAN_MOTION_DOT": 7.6e-07, "MEAN_MOTION_DDOT": 0}, "tle": {"line1": "1 36519U 10017A   25344.49062095  .00000076  00000+0  68221-4 0  9991", "line2": "2 36519  82.9615  28.3655 0034836 294.5247 178.1615 13.71648963782063"}}, "geometry": {"type": "Point", "coordinates": [-156.23515981779886, 31.72976245394779]}}]}